NORAD_CAT_ID,OBJECT_NAME,OBJECT_TYPE,EPOCH,MEAN_MOTION,ECCENTRICITY,INCLINATION,RA_OF_ASC_NODE,ARG_OF_PERICENTER,MEAN_ANOMALY,BSTAR,MEAN_MOTION_DOT,MEAN_MOTION_DDOT,TLE_LINE0,TLE_LINE1,TLE_LINE2,SEMIMAJOR_AXIS,PERIOD,APOGEE,PERIGEE,DECAYED
52992.0,STARLINK-4269,PAYLOAD,2023-11-05 23:24:32,15.08859877,0.000165,53.2169,341.0945,95.2451,264.8729,0.00069777,0.0001084,0.0,0 STARLINK-4269,1 52992U 22076G   23309.97537488  .00010840  00000-0  69777-3 0  9994,2 52992  53.2169 341.0945 0001650  95.2451 264.8729 15.08859877 74141,6917.82,95.436,540.826,538.543,0.0
52992.0,STARLINK-4269,PAYLOAD,2023-11-06 08:56:50,15.08880026,0.000163,53.2167,339.3112,83.7352,276.3826,0.0017657,0.00027956,0.0,0 STARLINK-4269,1 52992U 22076G   23310.37280835  .00027956  00000-0  17657-2 0  9996,2 52992  53.2167 339.3112 0001630  83.7352 276.3826 15.08880026 74208,6917.758,95.435,540.751,538.495,0.0
52992.0,STARLINK-4269,PAYLOAD,2023-11-06 18:29:11,15.08805553,0.0001838,53.217,337.5244,67.8935,292.2253,8.9894e-05,1.142e-05,0.0,0 STARLINK-4269,1 52992U 22076G   23310.77026690  .00001142  00000-0  89894-4 0  9990,2 52992  53.2170 337.5244 0001838  67.8935 292.2253 15.08805553 74267,6917.986,95.44,541.122,538.579,0.0
52992.0,STARLINK-4269,PAYLOAD,2023-11-07 02:26:08,15.08759337,0.0001262,53.2175,336.0381,92.9182,267.1955,-0.0014508,-0.00023252,0.0,0 STARLINK-4269,1 52992U 22076G   23311.10148472 -.00023252  00000-0 -14508-2 0  9997,2 52992  53.2175 336.0381 0001262  92.9182 267.1955 15.08759337 74316,6918.127,95.443,540.865,539.119,0.0
52992.0,STARLINK-4269,PAYLOAD,2023-11-07 08:47:40,15.08823362,0.0001394,53.217,334.8509,97.9443,262.1707,0.0014954,0.00023581,0.0,0 STARLINK-4269,1 52992U 22076G   23311.36644302  .00023581  00000-0  14954-2 0  9996,2 52992  53.2170 334.8509 0001394  97.9443 262.1707 15.08823362 74354,6917.931,95.439,540.761,538.832,0.0
52992.0,STARLINK-4269,PAYLOAD,2023-11-07 11:58:27,15.08819086,0.0001393,53.2174,334.2556,84.6201,275.495,0.0021825,0.00034597,0.0,0 STARLINK-4269,1 52992U 22076G   23311.49892828  .00034597  00000-0  21825-2 0  9992,2 52992  53.2174 334.2556 0001393  84.6201 275.4950 15.08819086 73903,6917.944,95.439,540.773,538.846,0.0
52992.0,STARLINK-4269,PAYLOAD,2023-11-08 07:03:04,15.08863417,0.0001159,53.2165,330.6876,91.7141,268.3984,0.0010494,0.00016463,0.0,0 STARLINK-4269,1 52992U 22076G   23312.29380013  .00016463  00000-0  10494-2 0  9991,2 52992  53.2165 330.6876 0001159  91.7141 268.3984 15.08863417 74029,6917.809,95.436,540.476,538.872,0.0
52992.0,STARLINK-4269,PAYLOAD,2023-11-08 18:10:45,15.08867706,0.0001306,53.2172,328.6076,97.3932,262.7208,0.00057491,8.88e-05,0.0,0 STARLINK-4269,1 52992U 22076G   23312.75747294  .00008880  00000-0  57491-3 0  9993,2 52992  53.2172 328.6076 0001306  97.3932 262.7208 15.08867706 74561,6917.796,95.436,540.564,538.757,0.0
52992.0,STARLINK-4269,PAYLOAD,2023-11-09 10:04:36,15.08863124,0.0001449,53.2178,325.6351,100.891,259.2246,0.00029181,4.362e-05,0.0,0 STARLINK-4269,1 52992U 22076G   23313.41986559  .00004362  00000-0  29181-3 0  9992,2 52992  53.2178 325.6351 0001449 100.8910 259.2246 15.08863124 74668,6917.81,95.436,540.677,538.672,0.0
52992.0,STARLINK-4269,PAYLOAD,2023-11-10 00:23:04,15.08848569,0.0001345,53.2169,322.9567,94.9195,265.1951,-2.4928e-05,-6.85e-06,0.0,0 STARLINK-4269,1 52992U 22076G   23314.01602627 -.00000685  00000-0 -24928-4 0  9991,2 52992  53.2169 322.9567 0001345  94.9195 265.1951 15.08848569 74755,6917.854,95.437,540.65,538.789,0.0
52992.0,STARLINK-4269,PAYLOAD,2023-11-10 08:20:00,15.0884873,0.0001582,53.2164,321.4712,79.0778,281.0392,-3.0654e-05,-7.76e-06,0.0,0 STARLINK-4269,1 52992U 22076G   23314.34722775 -.00000776  00000-0 -30654-4 0  9998,2 52992  53.2164 321.4712 0001582  79.0778 281.0392 15.08848730 74330,6917.854,95.437,540.813,538.624,0.0
52992.0,STARLINK-4269,PAYLOAD,2023-11-10 17:52:19,15.088433,0.0001699,53.2177,319.6873,78.7048,281.4135,-5.5511e-05,-1.172e-05,0.0,0 STARLINK-4269,1 52992U 22076G   23314.74466995 -.00001172  00000-0 -55511-4 0  9991,2 52992  53.2177 319.6873 0001699  78.7048 281.4135 15.08843300 74861,6917.87,95.437,540.911,538.56,0.0
52992.0,STARLINK-4269,PAYLOAD,2023-11-11 06:35:25,15.08842353,0.0001586,53.2177,317.307,81.9914,278.1258,-5.5602e-05,-1.173e-05,0.0,0 STARLINK-4269,1 52992U 22076G   23315.27459562 -.00001173  00000-0 -55602-4 0  9994,2 52992  53.2177 317.3070 0001586  81.9914 278.1258 15.08842353 74471,6917.873,95.437,540.835,538.641,0.0
52992.0,STARLINK-4269,PAYLOAD,2023-11-11 17:43:06,15.08848772,0.000159,53.218,315.2246,87.7698,272.3477,-1.3842e-05,-5.08e-06,0.0,0 STARLINK-4269,1 52992U 22076G   23315.73826888 -.00000508  00000-0 -13842-4 0  9995,2 52992  53.2180 315.2246 0001590  87.7698 272.3477 15.08848772 74543,6917.854,95.437,540.819,538.619,0.0
52992.0,STARLINK-4269,PAYLOAD,2023-11-12 03:15:25,15.08843942,0.0001616,53.2175,313.4399,84.5602,275.5575,9.086e-05,1.158e-05,0.0,0 STARLINK-4269,1 52992U 22076G   23316.13570939  .00001158  00000-0  90860-4 0  9998,2 52992  53.2175 313.4399 0001616  84.5602 275.5575 15.08843942 75072,6917.868,95.437,540.851,538.615,0.0
52992.0,STARLINK-4269,PAYLOAD,2023-11-12 09:36:57,15.08850376,0.000149,53.2174,312.2494,95.1591,264.9571,0.000148,2.069e-05,0.0,0 STARLINK-4269,1 52992U 22076G   23316.40066380  .00002069  00000-0  14800-3 0  9999,2 52992  53.2174 312.2494 0001490  95.1591 264.9571 15.08850376 74648,6917.849,95.437,540.744,538.683,0.0
52992.0,STARLINK-4269,PAYLOAD,2023-11-13 06:16:59,15.08801325,0.000189,53.2178,308.3813,97.653,262.4677,0.00079978,0.0001245,0.0,0 STARLINK-4269,1 52992U 22076G   23317.26180514  .00012450  00000-0  79978-3 0  9992,2 52992  53.2178 308.3813 0001890  97.6530 262.4677 15.08801325 75244,6917.999,95.44,541.171,538.556,0.0
52992.0,STARLINK-4269,PAYLOAD,2023-11-14 02:56:59,15.08843606,0.0001655,53.2184,304.5146,104.9629,255.1547,3.1163e-05,2.08e-06,0.0,0 STARLINK-4269,1 52992U 22076G   23318.12290921  .00000208  00000-0  31163-4 0  9995,2 52992  53.2184 304.5146 0001655 104.9629 255.1547 15.08843606 75375,6917.869,95.437,540.879,538.589,0.0
52992.0,STARLINK-4269,PAYLOAD,2023-11-14 06:07:45,15.08843278,0.000154,53.2182,303.9235,97.3474,262.7693,4.19e-05,3.79e-06,0.0,0 STARLINK-4269,1 52992U 22076G   23318.25538925  .00000379  00000-0  41900-4 0  9997,2 52992  53.2182 303.9235 0001540  97.3474 262.7693 15.08843278 74922,6917.87,95.437,540.801,538.67,0.0
52992.0,STARLINK-4269,PAYLOAD,2023-11-14 22:01:37,15.088227,0.0001564,53.2181,300.9532,107.832,252.2843,0.00021108,3.071e-05,0.0,0 STARLINK-4269,1 52992U 22076G   23318.91780038  .00003071  00000-0  21108-3 0  9993,2 52992  53.2181 300.9532 0001564 107.8320 252.2843 15.08822700 75021,6917.933,95.439,540.88,538.716,0.0
52992.0,STARLINK-4269,PAYLOAD,2023-11-15 02:47:47,15.08834856,0.0001456,53.2186,300.0605,102.805,257.3105,-4.8544e-05,-1.06e-05,0.0,0 STARLINK-4269,1 52992U 22076G   23319.11651846 -.00001060  00000-0 -48544-4 0  9992,2 52992  53.2186 300.0605 0001456 102.8050 257.3105 15.08834856 75520,6917.896,95.438,540.768,538.754,0.0
52992.0,STARLINK-4269,PAYLOAD,2023-11-15 04:23:10,15.08835345,0.000147,53.2184,299.7632,103.7987,256.3168,-4.6847e-05,-1.033e-05,0.0,0 STARLINK-4269,1 52992U 22076G   23319.18275809 -.00001033  00000-0 -46847-4 0  9994,2 52992  53.2184 299.7632 0001470 103.7987 256.3168 15.08835345 75068,6917.895,95.438,540.777,538.743,0.0
52992.0,STARLINK-4269,PAYLOAD,2023-11-15 21:52:24,15.08836061,0.0001562,53.2185,296.4919,101.9358,258.1809,5.9027e-05,6.51e-06,0.0,0 STARLINK-4269,1 52992U 22076G   23319.91139724  .00000651  00000-0  59027-4 0  9997,2 52992  53.2185 296.4919 0001562 101.9358 258.1809 15.08836061 75175,6917.892,95.438,540.838,538.677,0.0
52992.0,STARLINK-4269,PAYLOAD,2023-11-16 07:24:43,15.08838173,0.0001612,53.2187,294.7074,100.89,259.2274,6.8145e-05,7.97e-06,0.0,0 STARLINK-4269,1 52992U 22076G   23320.30883684  .00000797  00000-0  68145-4 0  9995,2 52992  53.2187 294.7074 0001612 100.8900 259.2274 15.08838173 75700,6917.886,95.438,540.866,538.636,0.0
52992.0,STARLINK-4269,PAYLOAD,2023-11-16 15:21:39,15.08837665,0.0001578,53.2186,293.2196,89.6688,270.4485,7.7291e-05,9.42e-06,0.0,0 STARLINK-4269,1 52992U 22076G   23320.64003791  .00000942  00000-0  77291-4 0  9999,2 52992  53.2186 293.2196 0001578  89.6688 270.4485 15.08837665 75283,6917.888,95.438,540.844,538.661,0.0
52992.0,STARLINK-4269,PAYLOAD,2023-11-17 05:40:07,15.08836521,0.0001429,53.2178,290.544,84.4653,275.6502,9.9239e-05,1.292e-05,0.0,0 STARLINK-4269,1 52992U 22076G   23321.23619989  .00001292  00000-0  99239-4 0  9992,2 52992  53.2178 290.5440 0001429  84.4653 275.6502 15.08836521 75373,6917.891,95.438,540.745,538.767,0.0
52992.0,STARLINK-4269,PAYLOAD,2023-11-17 15:12:26,15.08830213,0.0001578,53.2179,288.76,106.1085,254.0081,0.00021259,3.096e-05,0.0,0 STARLINK-4269,1 52992U 22076G   23321.63364157  .00003096  00000-0  21259-3 0  9990,2 52992  53.2179 288.7600 0001578 106.1085 254.0081 15.08830213 75901,6917.91,95.438,540.867,538.684,0.0
52992.0,STARLINK-4269,PAYLOAD,2023-11-17 21:33:59,15.08832642,0.0001458,53.2174,287.5702,91.0611,269.0548,0.00015382,2.16e-05,0.0,0 STARLINK-4269,1 52992U 22076G   23321.89860101  .00002160  00000-0  15382-3 0  9999,2 52992  53.2174 287.5702 0001458  91.0611 269.0548 15.08832642 75474,6917.903,95.438,540.777,538.759,0.0
52992.0,STARLINK-4269,PAYLOAD,2023-11-18 03:55:31,15.0884449,0.0001437,53.2174,286.3804,90.1728,269.9428,8.7228e-05,1.101e-05,0.0,0 STARLINK-4269,1 52992U 22076G   23322.16355555  .00001101  00000-0  87228-4 0  9995,2 52992  53.2174 286.3804 0001437  90.1728 269.9428 15.08844490 75986,6917.867,95.437,540.726,538.738,0.0
52992.0,STARLINK-4269,PAYLOAD,2023-11-18 10:17:03,15.08850432,0.0001415,53.2169,285.1905,90.8894,269.226,0.00010232,1.341e-05,0.0,0 STARLINK-4269,1 52992U 22076G   23322.42851085  .00001341  00000-0  10232-3 0  9999,2 52992  53.2169 285.1905 0001415  90.8894 269.2260 15.08850432 75559,6917.849,95.437,540.692,538.735,0.0
